[{"OBJECT_NAME":"STARLINK-31000","OBJECT_ID":"2023-186R","EPOCH":"2026-03-09T09:53:14.289216","MEAN_MOTION":15.27580413,"ECCENTRICITY":8.639e-5,"INCLINATION":43.0013,"RA_OF_ASC_NODE":65.2185,"ARG_OF_PERICENTER":279.8571,"MEAN_ANOMALY":80.2183,"EPHEMERIS_TYPE":0,"CLASSIFICATION_TYPE":"U","NORAD_CAT_ID":58488,"ELEMENT_SET_NO":999,"REV_AT_EPOCH":12584,"BSTAR":2.9611403e-5,"MEAN_MOTION_DOT":5.53e-6,"MEAN_MOTION_DDOT":0},{"OBJECT_NAME":"OBJECT A","OBJECT_ID":"2025-013A","EPOCH":"2026-03-09T23:29:31.895232","MEAN_MOTION":15.29260221,"ECCENTRICITY":0.0010321,"INCLINATION":97.6364,"RA_OF_ASC_NODE":244.5149,"ARG_OF_PERICENTER":282.3775,"MEAN_ANOMALY":77.6309,"EPHEMERIS_TYPE":0,"CLASSIFICATION_TYPE":"U","NORAD_CAT_ID":62729,"ELEMENT_SET_NO":999,"REV_AT_EPOCH":6276,"BSTAR":0.0013206527,"MEAN_MOTION_DOT":0.00037616,"MEAN_MOTION_DDOT":0}]
